[{"OBJECT_NAME":"OBJECT F","OBJECT_ID":"2022-023F","EPOCH":"2026-03-09T23:55:35.397408","MEAN_MOTION":15.18257694,"ECCENTRICITY":0.01194645,"INCLINATION":63.4547,"RA_OF_ASC_NODE":250.628,"ARG_OF_PERICENTER":343.8947,"MEAN_ANOMALY":15.838,"EPHEMERIS_TYPE":0,"CLASSIFICATION_TYPE":"U","NORAD_CAT_ID":51951,"ELEMENT_SET_NO":999,"REV_AT_EPOCH":22265,"BSTAR":0.00028900174,"MEAN_MOTION_DOT":6.929e-5,"MEAN_MOTION_DDOT":0},{"OBJECT_NAME":"STARLINK-33809","OBJECT_ID":"2025-071R","EPOCH":"2026-03-09T12:10:09.413760","MEAN_MOTION":15.30178871,"ECCENTRICITY":0.00012102,"INCLINATION":53.1583,"RA_OF_ASC_NODE":140.6134,"ARG_OF_PERICENTER":88.6701,"MEAN_ANOMALY":271.4439,"EPHEMERIS_TYPE":0,"CLASSIFICATION_TYPE":"U","NORAD_CAT_ID":63508,"ELEMENT_SET_NO":999,"REV_AT_EPOCH":5268,"BSTAR":0.0011179203,"MEAN_MOTION_DOT":0.00032875,"MEAN_MOTION_DDOT":0}]
